{
  "type": "FeatureCollection",
  "features": [
    {
      "type": "Feature",
      "properties": {
        "norad_id": 66470,
        "name": "STARLINK-35655",
        "group": "last-30-days",
        "lat": 32.93506117441717,
        "lon": -169.4404463062339,
        "alt_km": 439.6268823413311,
        "timestamp": "2025-12-15T14:57:56.619713+00:00",
        "meta_object_name": "STARLINK-35655",
        "meta_object_id": "2025-262Q",
        "meta_epoch": "2025-12-14T20:00:06.000192",
        "meta_mean_motion": 15.40726979,
        "meta_eccentricity": 0.00015984,
        "meta_inclination": 43.0006,
        "meta_ra_of_asc_node": 59.1539,
        "meta_arg_of_pericenter": 272.1681,
        "meta_mean_anomaly": 146.9084,
        "meta_ephemeris_type": 0,
        "meta_classification_type": "U",
        "meta_norad_cat_id": 66470,
        "meta_element_set_no": 999,
        "meta_rev_at_epoch": 597,
        "meta_bstar": 0.00019499999,
        "meta_mean_motion_dot": 7.858e-05,
        "meta_mean_motion_ddot": 0,
        "tle_line1": "1 66470U 25262Q   25348.83340278  .00007858  00000+0  19500-3 0  9992",
        "tle_line2": "2 66470  43.0006  59.1539 0001598 272.1681 146.9084 15.40726979  5973"
      },
      "geometry": {
        "type": "Point",
        "coordinates": [
          -169.4404463062339,
          32.93506117441717
        ]
      }
    },
    {
      "type": "Feature",
      "properties": {
        "norad_id": 66471,
        "name": "STARLINK-35569",
        "group": "last-30-days",
        "lat": 26.248477106123566,
        "lon": -157.3804126449174,
        "alt_km": 440.3947392344962,
        "timestamp": "2025-12-15T14:57:56.619727+00:00",
        "meta_object_name": "STARLINK-35569",
        "meta_object_id": "2025-262R",
        "meta_epoch": "2025-12-14T20:00:06.000192",
        "meta_mean_motion": 15.40724552,
        "meta_eccentricity": 0.00014502,
        "meta_inclination": 43.0006,
        "meta_ra_of_asc_node": 59.1232,
        "meta_arg_of_pericenter": 266.9576,
        "meta_mean_anomaly": 164.5407,
        "meta_ephemeris_type": 0,
        "meta_classification_type": "U",
        "meta_norad_cat_id": 66471,
        "meta_element_set_no": 999,
        "meta_rev_at_epoch": 597,
        "meta_bstar": 0.0004152236,
        "meta_mean_motion_dot": 0.00017094,
        "meta_mean_motion_ddot": 0,
        "tle_line1": "1 66471U 25262R   25348.83340278  .00017094  00000+0  41522-3 0  9995",
        "tle_line2": "2 66471  43.0006  59.1232 0001450 266.9576 164.5407 15.40724552  5975"
      },
      "geometry": {
        "type": "Point",
        "coordinates": [
          -157.3804126449174,
          26.248477106123566
        ]
      }
    },
    {
      "type": "Feature",
      "properties": {
        "norad_id": 66472,
        "name": "STARLINK-35567",
        "group": "last-30-days",
        "lat": 10.531488673469225,
        "lon": -136.999987815267,
        "alt_km": 442.6901676778152,
        "timestamp": "2025-12-15T14:57:56.619739+00:00",
        "meta_object_name": "STARLINK-35567",
        "meta_object_id": "2025-262S",
        "meta_epoch": "2025-12-14T20:00:06.000192",
        "meta_mean_motion": 15.40699766,
        "meta_eccentricity": 0.00011512,
        "meta_inclination": 43.0008,
        "meta_ra_of_asc_node": 59.0621,
        "meta_arg_of_pericenter": 280.4594,
        "meta_mean_anomaly": 175.9945,
        "meta_ephemeris_type": 0,
        "meta_classification_type": "U",
        "meta_norad_cat_id": 66472,
        "meta_element_set_no": 999,
        "meta_rev_at_epoch": 597,
        "meta_bstar": 0.00030535147,
        "meta_mean_motion_dot": 0.00012472,
        "meta_mean_motion_ddot": 0,
        "tle_line1": "1 66472U 25262S   25348.83340278  .00012472  00000+0  30535-3 0  9993",
        "tle_line2": "2 66472  43.0008  59.0621 0001151 280.4594 175.9945 15.40699766  5979"
      },
      "geometry": {
        "type": "Point",
        "coordinates": [
          -136.999987815267,
          10.531488673469225
        ]
      }
    },
    {
      "type": "Feature",
      "properties": {
        "norad_id": 66473,
        "name": "STARLINK-35568",
        "group": "last-30-days",
        "lat": -30.077382664278822,
        "lon": 15.71072772364056,
        "alt_km": 409.4990659630366,
        "timestamp": "2025-12-15T14:57:56.619751+00:00",
        "meta_object_name": "STARLINK-35568",
        "meta_object_id": "2025-262T",
        "meta_epoch": "2025-12-11T07:39:08.069760",
        "meta_mean_motion": 15.50526439,
        "meta_eccentricity": 0.00047596,
        "meta_inclination": 42.9998,
        "meta_ra_of_asc_node": 79.3576,
        "meta_arg_of_pericenter": 252.6139,
        "meta_mean_anomaly": 107.4201,
        "meta_ephemeris_type": 0,
        "meta_classification_type": "U",
        "meta_norad_cat_id": 66473,
        "meta_element_set_no": 999,
        "meta_rev_at_epoch": 534,
        "meta_bstar": 0.0038259112,
        "meta_mean_motion_dot": 0.00230458,
        "meta_mean_motion_ddot": 0,
        "tle_line1": "1 66473U 25262T   25345.31884340  .00230458  00000+0  38259-2 0  9993",
        "tle_line2": "2 66473  42.9998  79.3576 0004759 252.6139 107.4201 15.50526439  5346"
      },
      "geometry": {
        "type": "Point",
        "coordinates": [
          15.71072772364056,
          -30.077382664278822
        ]
      }
    },
    {
      "type": "Feature",
      "properties": {
        "norad_id": 66474,
        "name": "STARLINK-35620",
        "group": "last-30-days",
        "lat": -29.454681663438965,
        "lon": 16.833559744908513,
        "alt_km": 412.1446240973264,
        "timestamp": "2025-12-15T14:57:56.619762+00:00",
        "meta_object_name": "STARLINK-35620",
        "meta_object_id": "2025-262U",
        "meta_epoch": "2025-12-12T13:00:34.651008",
        "meta_mean_motion": 15.51135131,
        "meta_eccentricity": 0.00014651,
        "meta_inclination": 43.0009,
        "meta_ra_of_asc_node": 72.1929,
        "meta_arg_of_pericenter": 279.0822,
        "meta_mean_anomaly": 80.9873,
        "meta_ephemeris_type": 0,
        "meta_classification_type": "U",
        "meta_norad_cat_id": 66474,
        "meta_element_set_no": 999,
        "meta_rev_at_epoch": 553,
        "meta_bstar": 0.0027986206,
        "meta_mean_motion_dot": 0.00170828,
        "meta_mean_motion_ddot": 0,
        "tle_line1": "1 66474U 25262U   25346.54206772  .00170828  00000+0  27986-2 0  9996",
        "tle_line2": "2 66474  43.0009  72.1929 0001465 279.0822  80.9873 15.51135131  5535"
      },
      "geometry": {
        "type": "Point",
        "coordinates": [
          16.833559744908513,
          -29.454681663438965
        ]
      }
    },
    {
      "type": "Feature",
      "properties": {
        "norad_id": 66475,
        "name": "STARLINK-35538",
        "group": "last-30-days",
        "lat": -14.646760063069552,
        "lon": -109.29558874427111,
        "alt_km": 445.35959394134807,
        "timestamp": "2025-12-15T14:57:56.619773+00:00",
        "meta_object_name": "STARLINK-35538",
        "meta_object_id": "2025-262V",
        "meta_epoch": "2025-12-14T20:00:06.000192",
        "meta_mean_motion": 15.40695525,
        "meta_eccentricity": 0.00010238,
        "meta_inclination": 43.001,
        "meta_ra_of_asc_node": 58.9715,
        "meta_arg_of_pericenter": 277.038,
        "meta_mean_anomaly": 216.7586,
        "meta_ephemeris_type": 0,
        "meta_classification_type": "U",
        "meta_norad_cat_id": 66475,
        "meta_element_set_no": 999,
        "meta_rev_at_epoch": 597,
        "meta_bstar": 0.00020863659,
        "meta_mean_motion_dot": 8.42e-05,
        "meta_mean_motion_ddot": 0,
        "tle_line1": "1 66475U 25262V   25348.83340278  .00008420  00000+0  20864-3 0  9998",
        "tle_line2": "2 66475  43.0010  58.9715 0001023 277.0380 216.7586 15.40695525  5974"
      },
      "geometry": {
        "type": "Point",
        "coordinates": [
          -109.29558874427111,
          -14.646760063069552
        ]
      }
    },
    {
      "type": "Feature",
      "properties": {
        "norad_id": 66476,
        "name": "STARLINK-35372",
        "group": "last-30-days",
        "lat": -22.510857409691265,
        "lon": -99.20798290986673,
        "alt_km": 445.33283430171923,
        "timestamp": "2025-12-15T14:57:56.619783+00:00",
        "meta_object_name": "STARLINK-35372",
        "meta_object_id": "2025-262W",
        "meta_epoch": "2025-12-14T20:00:06.000192",
        "meta_mean_motion": 15.40700979,
        "meta_eccentricity": 0.00014844,
        "meta_inclination": 43.0011,
        "meta_ra_of_asc_node": 58.9408,
        "meta_arg_of_pericenter": 252.084,
        "meta_mean_anomaly": 254.0518,
        "meta_ephemeris_type": 0,
        "meta_classification_type": "U",
        "meta_norad_cat_id": 66476,
        "meta_element_set_no": 999,
        "meta_rev_at_epoch": 586,
        "meta_bstar": 0.00071220946,
        "meta_mean_motion_dot": 0.00029563,
        "meta_mean_motion_ddot": 0,
        "tle_line1": "1 66476U 25262W   25348.83340278  .00029563  00000+0  71221-3 0  9993",
        "tle_line2": "2 66476  43.0011  58.9408 0001484 252.0840 254.0518 15.40700979  5868"
      },
      "geometry": {
        "type": "Point",
        "coordinates": [
          -99.20798290986673,
          -22.510857409691265
        ]
      }
    }
  ]
}